$$SOE
2460154.500000000, A.D. 2023-Jul-29 00:00:00.0000, -4.665270988350983E+08, -2.356114726902867E+08, 9.605766715933757E+07,
2460161.500000000, A.D. 2023-Aug-05 00:00:00.0000, -4.615149550624967E+08, -2.424775972870518E+08, 9.327468675375195E+07,
2460168.500000000, A.D. 2023-Aug-12 00:00:00.0000, -4.563520572122799E+08, -2.492644950520900E+08, 9.046122716056554E+07,
2460175.500000000, A.D. 2023-Aug-19 00:00:00.0000, -4.510385516283666E+08, -2.559691073107109E+08, 8.761790213325875E+07,
2460182.500000000, A.D. 2023-Aug-26 00:00:00.0000, -4.455746250860623E+08, -2.625883321261138E+08, 8.474534576167870E+07,
2460189.500000000, A.D. 2023-Sep-02 00:00:00.0000, -4.399605068393511E+08, -2.691190235840680E+08, 8.184421321111655E+07,
2460196.500000000, A.D. 2023-Sep-09 00:00:00.0000, -4.341964707517812E+08, -2.755579912204918E+08, 7.891518147347458E+07,
2460203.500000000, A.D. 2023-Sep-16 00:00:00.0000, -4.282828373461502E+08, -2.819019996540980E+08, 7.595895011067431E+07,
2460210.500000000, A.D. 2023-Sep-23 00:00:00.0000, -4.222199753602296E+08, -2.881477681417981E+08, 7.297624197584745E+07,
2460217.500000000, A.D. 2023-Sep-30 00:00:00.0000, -4.160083031516020E+08, -2.942919688708625E+08, 6.996780404098259E+07,
2460224.500000000, A.D. 2023-Oct-07 00:00:00.0000, -4.096482923085548E+08, -3.003312245359691E+08, 6.693440850268103E+07,
2460231.500000000, A.D. 2023-Oct-14 00:00:00.0000, -4.031404724309083E+08, -3.062621085207925E+08, 6.387685380012565E+07,
2460238.500000000, A.D. 2023-Oct-21 00:00:00.0000, -3.964854338568665E+08, -3.120811460882855E+08, 6.079596538050127E+07,
2460245.500000000, A.D. 2023-Oct-28 00:00:00.0000, -3.896838297644655E+08, -3.177848143258703E+08, 5.769259652739869E+07,
2460252.500000000, A.D. 2023-Nov-04 00:00:00.0000, -3.827363789009289E+08, -3.233695416225985E+08, 5.456762930377840E+07,
2460259.500000000, A.D. 2023-Nov-11 00:00:00.0000, -3.756438687654370E+08, -3.288317072859594E+08, 5.142197554394414E+07,
2460266.500000000, A.D. 2023-Nov-18 00:00:00.0000, -3.684071590291866E+08, -3.341676413715466E+08, 4.825657786887603E+07,
2460273.500000000, A.D. 2023-Nov-25 00:00:00.0000, -3.610271851235850E+08, -3.393736247125878E+08, 4.507241071973754E+07,
2460280.500000000, A.D. 2023-Dec-02 00:00:00.0000, -3.535049619720011E+08, -3.444458891705672E+08, 4.187048140549013E+07,
2460287.500000000, A.D. 2023-Dec-09 00:00:00.0000, -3.458415877905354E+08, -3.493806181764495E+08, 3.865183115179718E+07,
2460294.500000000, A.D. 2023-Dec-16 00:00:00.0000, -3.380382476732244E+08, -3.541739475612749E+08, 3.541753612468767E+07,
2460301.500000000, A.D. 2023-Dec-23 00:00:00.0000, -3.300962166158308E+08, -3.588219660007313E+08, 3.216870845168097E+07,
2460308.500000000, A.D. 2023-Dec-30 00:00:00.0000, -3.220168633204128E+08, -3.633207140370942E+08, 2.890649744714531E+07,
2460315.500000000, A.D. 2024-Jan-06 00:00:00.0000, -3.138016565543773E+08, -3.676661840530410E+08, 2.563209100923568E+07,
2460322.500000000, A.D. 2024-Jan-13 00:00:00.0000, -3.054521708928590E+08, -3.718543230198487E+08, 2.234671674716003E+07,
2460329.500000000, A.D. 2024-Jan-20 00:00:00.0000, -2.969700906228625E+08, -3.758810349513716E+08, 1.905164297576228E+07,
2460336.500000000, A.D. 2024-Jan-27 00:00:00.0000, -2.883572138386399E+08, -3.797421824267725E+08, 1.574817981343934E+07,
2460343.500000000, A.D. 2024-Feb-03 00:00:00.0000, -2.796154571553112E+08, -3.834335881457403E+08, 1.243768034126829E+07,
2460350.500000000, A.D. 2024-Feb-10 00:00:00.0000, -2.707468607598809E+08, -3.869510368236063E+08, 9.121541769788101E+06,
2460357.500000000, A.D. 2024-Feb-17 00:00:00.0000, -2.617535936559408E+08, -3.902902774369985E+08, 5.801206596700370E+06,
2460364.500000000, A.D. 2024-Feb-24 00:00:00.0000, -2.526379590605966E+08, -3.934470258263423E+08, 2.478163748390675E+06,
2460371.500000000, A.D. 2024-Mar-02 00:00:00.0000, -2.434023999187486E+08, -3.964169677106298E+08, -8.460503055569232E+05,
2460378.500000000, A.D. 2024-Mar-09 00:00:00.0000, -2.340495043900613E+08, -3.991957622009427E+08, -4.169850488827825E+06,
2460385.500000000, A.D. 2024-Mar-16 00:00:00.0000, -2.245820109062410E+08, -4.017790456391448E+08, -7.491602132784665E+06,
2460392.500000000, A.D. 2024-Mar-23 00:00:00.0000, -2.150028128930382E+08, -4.041624346761276E+08, -1.080961997623691E+07,
2460399.500000000, A.D. 2024-Mar-30 00:00:00.0000, -2.053149653859681E+08, -4.063415286395933E+08, -1.412216695548683E+07,
2460406.500000000, A.D. 2024-Apr-06 00:00:00.0000, -1.955216932684206E+08, -4.083119145832449E+08, -1.742745309244961E+07,
2460413.500000000, A.D. 2024-Apr-13 00:00:00.0000, -1.856263975638502E+08, -4.100691742073106E+08, -2.072363474814719E+07,
2460420.500000000, A.D. 2024-Apr-20 00:00:00.0000, -1.756326607152438E+08, -4.116088900004821E+08, -2.400881394622704E+07,
2460427.500000000, A.D. 2024-Apr-27 00:00:00.0000, -1.655442523469774E+08, -4.129266511906605E+08, -2.728103768481734E+07,
2460434.500000000, A.D. 2024-May-04 00:00:00.0000, -1.553651353958882E+08, -4.140180602334582E+08, -3.053829731474054E+07,
2460441.500000000, A.D. 2024-May-11 00:00:00.0000, -1.450994723444401E+08, -4.148787399654853E+08, -3.377852802767572E+07,
2460448.500000000, A.D. 2024-May-18 00:00:00.0000, -1.347516314416038E+08, -4.155043414258202E+08, -3.699960847439483E+07,
2460455.500000000, A.D. 2024-May-25 00:00:00.0000, -1.243261928509189E+08, -4.158905523774051E+08, -4.019936053125256E+07,
2460462.500000000, A.D. 2024-Jun-01 00:00:00.0000, -1.138279546266133E+08, -4.160331066092252E+08, -4.337554924130237E+07,
2460469.500000000, A.D. 2024-Jun-08 00:00:00.0000, -1.032619382281048E+08, -4.159277940636559E+08, -4.652588297146463E+07,
2460476.500000000, A.D. 2024-Jun-15 00:00:00.0000, -9.263339312543070E+07, -4.155704712629951E+08, -4.964801379550475E+07,
2460483.500000000, A.D. 2024-Jun-22 00:00:00.0000, -8.194780144797996E+07, -4.149570708763438E+08, -5.273953793291616E+07,
2460490.500000000, A.D. 2024-Jun-29 00:00:00.0000, -7.121088473985921E+07, -4.140836122606516E+08, -5.579799621693829E+07,
2460497.500000000, A.D. 2024-Jul-06 00:00:00.0000, -6.042861011327281E+07, -4.129462154579815E+08, -5.882087505634350E+07,
2460504.500000000, A.D. 2024-Jul-13 00:00:00.0000, -4.960719378336713E+07, -4.115411158339750E+08, -6.180560786026645E+07,
2460511.500000000, A.D. 2024-Jul-20 00:00:00.0000, -3.875310389958312E+07, -4.098646782129482E+08, -6.474957667204538E+07,
2460518.500000000, A.D. 2024-Jul-27 00:00:00.0000, -2.787306325475750E+07, -4.079134114664352E+08, -6.765011405263054E+07,
2460525.500000000, A.D. 2024-Aug-03 00:00:00.0000, -1.697405152003438E+07, -4.056839839202138E+08, -7.050450529162091E+07,
2460532.500000000, A.D. 2024-Aug-10 00:00:00.0000, -6.063306756583410E+06, -4.031732395662558E+08, -7.330999098361751E+07,
2460539.500000000, A.D. 2024-Aug-17 00:00:00.0000, 4.851673930742482E+06, -4.003782150313182E+08, -7.606376999407381E+07,
2460546.500000000, A.D. 2024-Aug-24 00:00:00.0000, 1.576313471698016E+07, -3.972961572894377E+08, -7.876300284006840E+07,
2460553.500000000, A.D. 2024-Aug-31 00:00:00.0000, 2.666306256725538E+07, -3.939245421361077E+08, -8.140481552190377E+07,
2460560.500000000, A.D. 2024-Sep-07 00:00:00.0000, 3.754319039400958E+07, -3.902610932440866E+08, -8.398630384771772E+07,
2460567.500000000, A.D. 2024-Sep-14 00:00:00.0000, 4.839500204160023E+07, -3.863038007399299E+08, -8.650453819464043E+07,
2460574.500000000, A.D. 2024-Sep-21 00:00:00.0000, 5.920973716371446E+07, -3.820509388107270E+08, -8.895656850117980E+07,
2460581.500000000, A.D. 2024-Sep-28 00:00:00.0000, 6.997839559888937E+07, -3.775010854767564E+08, -9.133942972112766E+07,
2460588.500000000, A.D. 2024-Oct-05 00:00:00.0000, 8.069174500391342E+07, -3.726531444240895E+08, -9.365014808344340E+07,
2460595.500000000, A.D. 2024-Oct-12 00:00:00.0000, 9.134033146869595E+07, -3.675063658003189E+08, -9.588574788545202E+07,
2460602.500000000, A.D. 2024-Oct-19 00:00:00.0000, 1.019144914385294E+08, -3.620603661120200E+08, -9.804325867915539E+07,
2460609.500000000, A.D. 2024-Oct-26 00:00:00.0000, 1.124043649811510E+08, -3.563151478776063E+08, -1.001197229054249E+08,
2460616.500000000, A.D. 2024-Nov-02 00:00:00.0000, 1.227999107176574E+08, -3.502711190233344E+08, -1.021122039988082E+08,
2460623.500000000, A.D. 2024-Nov-09 00:00:00.0000, 1.330909225643055E+08, -3.439291118306743E+08, -1.040177949524197E+08,
2460630.500000000, A.D. 2024-Nov-16 00:00:00.0000, 1.432670483462321E+08, -3.372904012539688E+08, -1.058336273222375E+08,
2460637.500000000, A.D. 2024-Nov-23 00:00:00.0000, 1.533178103471516E+08, -3.303567224677174E+08, -1.075568806495807E+08,
2460644.500000000, A.D. 2024-Nov-30 00:00:00.0000, 1.632326280008690E+08, -3.231302874870971E+08, -1.091847922874456E+08,
2460651.500000000, A.D. 2024-Dec-07 00:00:00.0000, 1.730008431199582E+08, -3.156138002358201E+08, -1.107146675901788E+08,
2460658.500000000, A.D. 2024-Dec-14 00:00:00.0000, 1.826117469249838E+08, -3.078104686274427E+08, -1.121438902503527E+08,
2460665.500000000, A.D. 2024-Dec-21 00:00:00.0000, 1.920546064822845E+08, -2.997240146872604E+08, -1.134699326096336E+08,
2460672.500000000, A.D. 2024-Dec-28 00:00:00.0000, 2.013186924243649E+08, -2.913586854674903E+08, -1.146903662966855E+08,
2460679.500000000, A.D. 2025-Jan-04 00:00:00.0000, 2.103933104272726E+08, -2.827192621710941E+08, -1.158028731596259E+08,
2460686.500000000, A.D. 2025-Jan-11 00:00:00.0000, 2.192678344740348E+08, -2.738110656271732E+08, -1.168052561083437E+08,
2460693.500000000, A.D. 2025-Jan-18 00:00:00.0000, 2.279317408095024E+08, -2.646399588523731E+08, -1.176954497697503E+08,
2460700.500000000, A.D. 2025-Jan-25 00:00:00.0000, 2.363746426254736E+08, -2.552123470047233E+08, -1.184715309240709E+08,
2460707.500000000, A.D. 2025-Feb-01 00:00:00.0000, 2.445863254355896E+08, -2.455351746126702E+08, -1.191317286452795E+08,
2460714.500000000, A.D. 2025-Feb-08 00:00:00.0000, 2.525567829445868E+08, -2.356159199371921E+08, -1.196744340502548E+08,
$$EOE